{"type": "FeatureCollection", "features": [ {"type": "Feature", "properties": {"norad_id": 66946, "name": "STARLINK-36115", "group": "last-30-days", "lat": 17.69115374495278, "lon": -167.78120973413036, "alt_km": 312.2871558678862, "timestamp": "2025-12-17T13:48:36.281763+00:00", "meta": {"OBJECT_NAME": "STARLINK-36115", "OBJECT_ID": "2025-286X", "EPOCH": "2025-12-17T06:00:00.999648", "MEAN_MOTION": 15.8684823, "ECCENTRICITY": 9.216e-05, "INCLINATION": 53.156, "RA_OF_ASC_NODE": 27.7015, "ARG_OF_PERICENTER": 81.004, "MEAN_ANOMALY": 17.1616, "EPHEMERIS_TYPE": 0, "CLASSIFICATION_TYPE": "U", "NORAD_CAT_ID": 66946, "ELEMENT_SET_NO": 999, "REV_AT_EPOCH": 271, "BSTAR": -0.0063951, "MEAN_MOTION_DOT": -0.01456379, "MEAN_MOTION_DDOT": 0}, "tle": {"line1": "1 66946U 25286X   25351.25001157 -.01456379  00000+0 -63951-2 0  9993", "line2": "2 66946  53.1560  27.7015 0000921  81.0040  17.1616 15.86848230  2717"}}, "geometry": {"type": "Point", "coordinates": [-167.78120973413036, 17.69115374495278]}}, {"type": "Feature", "properties": {"norad_id": 66947, "name": "STARLINK-36089", "group": "last-30-days", "lat": 14.146861489529202, "lon": -164.8469405458312, "alt_km": 312.8053013449198, "timestamp": "2025-12-17T13:48:36.281774+00:00", "meta": {"OBJECT_NAME": "STARLINK-36089", "OBJECT_ID": "2025-286Y", "EPOCH": "2025-12-17T06:00:00.999648", "MEAN_MOTION": 15.86881708, "ECCENTRICITY": 9.652e-05, "INCLINATION": 53.1558, "RA_OF_ASC_NODE": 27.6923, "ARG_OF_PERICENTER": 82.2278, "MEAN_ANOMALY": 20.4355, "EPHEMERIS_TYPE": 0, "CLASSIFICATION_TYPE": "U", "NORAD_CAT_ID": 66947, "ELEMENT_SET_NO": 999, "REV_AT_EPOCH": 271, "BSTAR": -0.0064400561, "MEAN_MOTION_DOT": -0.01497826, "MEAN_MOTION_DDOT": 0}, "tle": {"line1": "1 66947U 25286Y   25351.25001157 -.01497826  00000+0 -64401-2 0  9997", "line2": "2 66947  53.1558  27.6923 0000965  82.2278  20.4355 15.86881708  2710"}}, "geometry": {"type": "Point", "coordinates": [-164.8469405458312, 14.146861489529202]}}, {"type": "Feature", "properties": {"norad_id": 66948, "name": "STARLINK-36116", "group": "last-30-days", "lat": 15.721930611594324, "lon": -166.13400893693876, "alt_km": 312.56582757358774, "timestamp": "2025-12-17T13:48:36.281783+00:00", "meta": {"OBJECT_NAME": "STARLINK-36116", "OBJECT_ID": "2025-286Z", "EPOCH": "2025-12-17T06:00:00.999648", "MEAN_MOTION": 15.86857992, "ECCENTRICITY": 8.299e-05, "INCLINATION": 53.156, "RA_OF_ASC_NODE": 27.6964, "ARG_OF_PERICENTER": 86.5112, "MEAN_ANOMALY": 14.1718, "EPHEMERIS_TYPE": 0, "CLASSIFICATION_TYPE": "U", "NORAD_CAT_ID": 66948, "ELEMENT_SET_NO": 999, "REV_AT_EPOCH": 271, "BSTAR": -0.0064267597, "MEAN_MOTION_DOT": -0.01493438, "MEAN_MOTION_DDOT": 0}, "tle": {"line1": "1 66948U 25286Z   25351.25001157 -.01493438  00000+0 -64268-2 0  9994", "line2": "2 66948  53.1560  27.6964 0000829  86.5112  14.1718 15.86857992  2713"}}, "geometry": {"type": "Point", "coordinates": [-166.13400893693876, 15.721930611594324]}}, {"type": "Feature", "properties": {"norad_id": 66949, "name": "STARLINK-36096", "group": "last-30-days", "lat": 12.536261257686112, "lon": -163.55477894230722, "alt_km": 313.02264825050224, "timestamp": "2025-12-17T13:48:36.281797+00:00", "meta": {"OBJECT_NAME": "STARLINK-36096", "OBJECT_ID": "2025-286AA", "EPOCH": "2025-12-17T06:00:00.999648", "MEAN_MOTION": 15.86903922, "ECCENTRICITY": 8.728e-05, "INCLINATION": 53.156, "RA_OF_ASC_NODE": 27.688, "ARG_OF_PERICENTER": 82.2769, "MEAN_ANOMALY": 22.4054, "EPHEMERIS_TYPE": 0, "CLASSIFICATION_TYPE": "U", "NORAD_CAT_ID": 66949, "ELEMENT_SET_NO": 999, "REV_AT_EPOCH": 271, "BSTAR": -0.006428127, "MEAN_MOTION_DOT": -0.01496766, "MEAN_MOTION_DDOT": 0}, "tle": {"line1": "1 66949U 25286AA  25351.25001157 -.01496766  00000+0 -64281-2 0  9997", "line2": "2 66949  53.1560  27.6880 0000872  82.2769  22.4054 15.86903922  2710"}}, "geometry": {"type": "Point", "coordinates": [-163.55477894230722, 12.536261257686112]}}, {"type": "Feature", "properties": {"norad_id": 66950, "name": "STARLINK-36111", "group": "last-30-days", "lat": 9.165735873706133, "lon": -160.914593939129, "alt_km": 313.4505358035558, "timestamp": "2025-12-17T13:48:36.281807+00:00", "meta": {"OBJECT_NAME": "STARLINK-36111", "OBJECT_ID": "2025-286AB", "EPOCH": "2025-12-17T06:00:00.999648", "MEAN_MOTION": 15.86951385, "ECCENTRICITY": 9.328e-05, "INCLINATION": 53.156, "RA_OF_ASC_NODE": 27.6794, "ARG_OF_PERICENTER": 84.6945, "MEAN_ANOMALY": 24.1953, "EPHEMERIS_TYPE": 0, "CLASSIFICATION_TYPE": "U", "NORAD_CAT_ID": 66950, "ELEMENT_SET_NO": 999, "REV_AT_EPOCH": 271, "BSTAR": -0.0065039542, "MEAN_MOTION_DOT": -0.01515553, "MEAN_MOTION_DDOT": 0}, "tle": {"line1": "1 66950U 25286AB  25351.25001157 -.01515553  00000+0 -65040-2 0  9999", "line2": "2 66950  53.1560  27.6794 0000932  84.6945  24.1953 15.86951385  2718"}}, "geometry": {"type": "Point", "coordinates": [-160.914593939129, 9.165735873706133]}}, {"type": "Feature", "properties": {"norad_id": 66951, "name": "STARLINK-35999", "group": "last-30-days", "lat": 7.383667687434396, "lon": -159.54635121186956, "alt_km": 313.6548487598693, "timestamp": "2025-12-17T13:48:36.281819+00:00", "meta": {"OBJECT_NAME": "STARLINK-35999", "OBJECT_ID": "2025-286AC", "EPOCH": "2025-12-17T06:00:00.999648", "MEAN_MOTION": 15.86969513, "ECCENTRICITY": 9.034e-05, "INCLINATION": 53.156, "RA_OF_ASC_NODE": 27.6748, "ARG_OF_PERICENTER": 87.8634, "MEAN_ANOMALY": 23.2463, "EPHEMERIS_TYPE": 0, "CLASSIFICATION_TYPE": "U", "NORAD_CAT_ID": 66951, "ELEMENT_SET_NO": 999, "REV_AT_EPOCH": 271, "BSTAR": -0.0065089116, "MEAN_MOTION_DOT": -0.01517758, "MEAN_MOTION_DDOT": 0}, "tle": {"line1": "1 66951U 25286AC  25351.25001157 -.01517758  00000+0 -65089-2 0  9992", "line2": "2 66951  53.1560  27.6748 0000903  87.8634  23.2463 15.86969513  2714"}}, "geometry": {"type": "Point", "coordinates": [-159.54635121186956, 7.383667687434396]}}, {"type": "Feature", "properties": {"norad_id": 66952, "name": "STARLINK-36122", "group": "last-30-days", "lat": 10.82531012984555, "lon": -162.20467794989355, "alt_km": 313.2364534032786, "timestamp": "2025-12-17T13:48:36.281828+00:00", "meta": {"OBJECT_NAME": "STARLINK-36122", "OBJECT_ID": "2025-286AD", "EPOCH": "2025-12-17T06:00:00.999648", "MEAN_MOTION": 15.86927003, "ECCENTRICITY": 9.496e-05, "INCLINATION": 53.1561, "RA_OF_ASC_NODE": 27.6838, "ARG_OF_PERICENTER": 83.9165, "MEAN_ANOMALY": 22.9062, "EPHEMERIS_TYPE": 0, "CLASSIFICATION_TYPE": "U", "NORAD_CAT_ID": 66952, "ELEMENT_SET_NO": 999, "REV_AT_EPOCH": 271, "BSTAR": -0.0064710616, "MEAN_MOTION_DOT": -0.01507181, "MEAN_MOTION_DDOT": 0}, "tle": {"line1": "1 66952U 25286AD  25351.25001157 -.01507181  00000+0 -64711-2 0  9993", "line2": "2 66952  53.1561  27.6838 0000949  83.9165  22.9062 15.86927003  2711"}}, "geometry": {"type": "Point", "coordinates": [-162.20467794989355, 10.82531012984555]}}, {"type": "Feature", "properties": {"norad_id": 66953, "name": "HULIANWANG DIGUI-114", "group": "last-30-days", "lat": -63.940209250313096, "lon": 171.58978554867613, "alt_km": 1007.6750446089645, "timestamp": "2025-12-17T13:48:36.281837+00:00", "meta": {"OBJECT_NAME": "HULIANWANG DIGUI-114", "OBJECT_ID": "2025-287A", "EPOCH": "2025-12-15T20:15:59.937408", "MEAN_MOTION": 13.68689195, "ECCENTRICITY": 0.00087999, "INCLINATION": 86.496, "RA_OF_ASC_NODE": 345.0232, "ARG_OF_PERICENTER": 195.8466, "MEAN_ANOMALY": 164.2419, "EPHEMERIS_TYPE": 0, "CLASSIFICATION_TYPE": "U", "NORAD_CAT_ID": 66953, "ELEMENT_SET_NO": 999, "REV_AT_EPOCH": 95, "BSTAR": 2.5636052e-05, "MEAN_MOTION_DOT": 3.9e-07, "MEAN_MOTION_DDOT": 0}, "tle": {"line1": "1 66953U 25287A   25349.84444372  .00000039  00000+0  25636-4 0  9999", "line2": "2 66953  86.4960 345.0232 0008799 195.8466 164.2419 13.68689195   952"}}, "geometry": {"type": "Point", "coordinates": [171.58978554867613, -63.940209250313096]}}, {"type": "Feature", "properties": {"norad_id": 66954, "name": "HULIANWANG DIGUI-115", "group": "last-30-days", "lat": -67.05892826535438, "lon": 172.71494280743926, "alt_km": 1007.7350753102392, "timestamp": "2025-12-17T13:48:36.281847+00:00", "meta": {"OBJECT_NAME": "HULIANWANG DIGUI-115", "OBJECT_ID": "2025-287B", "EPOCH": "2025-12-16T06:46:51.247776", "MEAN_MOTION": 13.68792269, "ECCENTRICITY": 0.00088535, "INCLINATION": 86.4976, "RA_OF_ASC_NODE": 344.8667, "ARG_OF_PERICENTER": 193.3846, "MEAN_ANOMALY": 166.7079, "EPHEMERIS_TYPE": 0, "CLASSIFICATION_TYPE": "U", "NORAD_CAT_ID": 66954, "ELEMENT_SET_NO": 999, "REV_AT_EPOCH": 101, "BSTAR": 2.3546402e-05, "MEAN_MOTION_DOT": 3.7e-07, "MEAN_MOTION_DDOT": 0}, "tle": {"line1": "1 66954U 25287B   25350.28253759  .00000037  00000+0  23546-4 0  9993", "line2": "2 66954  86.4976 344.8667 0008853 193.3846 166.7079 13.68792269  1019"}}, "geometry": {"type": "Point", "coordinates": [172.71494280743926, -67.05892826535438]}}, {"type": "Feature", "properties": {"norad_id": 66955, "name": "HULIANWANG DIGUI-116", "group": "last-30-days", "lat": -67.43192230043731, "lon": 172.87377618097642, "alt_km": 1010.2349343189462, "timestamp": "2025-12-17T13:48:36.281857+00:00", "meta": {"OBJECT_NAME": "HULIANWANG DIGUI-116", "OBJECT_ID": "2025-287C", "EPOCH": "2025-12-17T07:20:19.618368", "MEAN_MOTION": 13.68336187, "ECCENTRICITY": 0.00084332, "INCLINATION": 86.4912, "RA_OF_ASC_NODE": 344.4828, "ARG_OF_PERICENTER": 183.5256, "MEAN_ANOMALY": 176.5845, "EPHEMERIS_TYPE": 0, "CLASSIFICATION_TYPE": "U", "NORAD_CAT_ID": 66955, "ELEMENT_SET_NO": 999, "REV_AT_EPOCH": 115, "BSTAR": 0.00016199833, "MEAN_MOTION_DOT": 1.55e-06, "MEAN_MOTION_DDOT": 0}, "tle": {"line1": "1 66955U 25287C   25351.30578262  .00000155  00000+0  16200-3 0  9996", "line2": "2 66955  86.4912 344.4828 0008433 183.5256 176.5845 13.68336187  1153"}}, "geometry": {"type": "Point", "coordinates": [172.87377618097642, -67.43192230043731]}}]}